[{"OBJECT_NAME":"STARLINK-2104","OBJECT_ID":"2021-005AM","EPOCH":"2026-03-09T21:54:21.353760","MEAN_MOTION":15.06426617,"ECCENTRICITY":0.00013635,"INCLINATION":53.0579,"RA_OF_ASC_NODE":30.8657,"ARG_OF_PERICENTER":64.8855,"MEAN_ANOMALY":295.2275,"EPHEMERIS_TYPE":0,"CLASSIFICATION_TYPE":"U","NORAD_CAT_ID":47384,"ELEMENT_SET_NO":999,"REV_AT_EPOCH":28349,"BSTAR":0.00031171909,"MEAN_MOTION_DOT":4.368e-5,"MEAN_MOTION_DDOT":0},{"OBJECT_NAME":"PEGASUS DEB","OBJECT_ID":"1994-029AFM","EPOCH":"2026-03-08T23:15:51.953184","MEAN_MOTION":14.33874448,"ECCENTRICITY":0.03356187,"INCLINATION":81.3387,"RA_OF_ASC_NODE":74.0014,"ARG_OF_PERICENTER":52.9091,"MEAN_ANOMALY":310.2272,"EPHEMERIS_TYPE":0,"CLASSIFICATION_TYPE":"U","NORAD_CAT_ID":39914,"ELEMENT_SET_NO":999,"REV_AT_EPOCH":60479,"BSTAR":0.002295222,"MEAN_MOTION_DOT":0.00012116,"MEAN_MOTION_DDOT":0}]
